ALOS (DAICHI),1 28931U 06002A   26030.10584210  .00002248  00000+0  38592-3 0  9998,2 28931  98.1151 346.2750 0002131  74.9446 285.1995 14.69675387 67815,77.87239896123637,-89.16296867807195,673881.7174164817
H-2A R/B,1 28932U 06002B   26030.12910044  .00011547  00000+0  58920-3 0  9998,2 28932  98.2342 173.8799 0053551  13.6619 346.6046 15.15647210 88594,31.658696103330914,-127.94076698253468,488274.98036923684
RESURS-DK 1,1 29228U 06021A   26030.11438792  .00004381  00000+0  25702-3 0  9992,2 29228  69.9348 336.7878 0005144 212.8770 147.2077 15.12501158 81698,63.13271261527876,172.9783625930732,539651.7558763982
CZ-4B R/B,1 29507U 06046C   26030.07992596  .00007735  00000+0  39478-3 0  9992,2 29507  97.5671  75.0896 0034605  43.4319 316.9630 15.16472838 54199,-58.629742761417674,150.89504963066977,543802.7968223337
CZ-2C R/B,1 31114U 07010B   26030.04865060  .00000167  00000+0  95705-4 0  9991,2 31114  98.3970 145.2688 0059754  47.3725 313.2469 14.20232285974232,-32.53697866341814,-146.05439413915934,828194.7158220664
COSMO-SKYMED 1,1 31598U 07023A   26030.14769421  .00006166  00000+0  55166-3 0  9997,2 31598  97.8859 220.8811 0001531  83.6269 276.5126 14.96222252  9148,-81.92886632919378,27.83208875933505,607946.7544750405
COSMOS 2428,1 31792U 07029A   26030.09279808  .00000424  00000+0  25345-3 0  9995,2 31792  70.9401 284.3652 0006646 320.2624  39.8010 14.12924843958647,70.85854861754925,84.5337829695311,864339.9135745161
SL-16 R/B,1 31793U 07029B   26030.04922935  .00000197  00000+0  12688-3 0  9990,2 31793  70.9730 253.6096 0001838 271.7815 238.2178 14.14823314959907,64.86565397322653,88.65852669515542,854836.433980725
KORONAS-FOTON,1 33504U 09003A   26029.84884997  .00013613  00000+0  31465-3 0  9998,2 33504  82.4328 316.2201 0009303 304.6503  55.3866 15.42320097939754,1.1927685992167247,-161.67030829824236,445703.93374906963
CZ-2C R/B,1 37731U 11030B   26029.90287046  .00002165  00000+0  27892-3 0  9995,2 37731  97.8473 347.9658 0054022 115.8395 310.1402 14.81072705784351,-1.8941829453818912,-128.83731763846544,614729.1400451337
H-2A R/B,1 38341U 12025E   26030.17668154  .00005734  00000+0  52163-3 0  9996,2 38341  98.4658 354.1716 0046473  79.1340 281.5103 14.94824786742462,67.14926801338112,-102.04604516125694,567386.8715660947
SHIJIAN-16 (SJ-16),1 39358U 13057A   26030.21370291  .00001486  00000+0  14821-3 0  9997,2 39358  74.9722 257.9231 0017474 207.4458 152.5809 14.92215382665760,-75.03908012555208,-131.90463371965546,612367.6787509181
