CCSDS_OMM_VERS = 2.0
CREATION_DATE  = 
ORIGINATOR     = 

OBJECT_NAME    = ALOS (DAICHI)
OBJECT_ID      = 2006-002A
CENTER_NAME    = EARTH
REF_FRAME      = TEME
TIME_SYSTEM    = UTC
MEAN_ELEMENT_THEORY = SGP/SGP4

EPOCH          = 2026-01-30T02:32:24.757440
MEAN_MOTION    = 14.69675387
ECCENTRICITY   = .0002131
INCLINATION    = 98.1151
RA_OF_ASC_NODE = 346.2750
ARG_OF_PERICENTER = 74.9446
MEAN_ANOMALY   = 285.1995

EPHEMERIS_TYPE = 0
CLASSIFICATION_TYPE = U
NORAD_CAT_ID   = 28931
ELEMENT_SET_NO = 999
REV_AT_EPOCH   = 6781
BSTAR          = .38592E-3
MEAN_MOTION_DOT = .2248E-4
MEAN_MOTION_DDOT = 0

CCSDS_OMM_VERS = 2.0
CREATION_DATE  = 
ORIGINATOR     = 

OBJECT_NAME    = H-2A R/B
OBJECT_ID      = 2006-002B
CENTER_NAME    = EARTH
REF_FRAME      = TEME
TIME_SYSTEM    = UTC
MEAN_ELEMENT_THEORY = SGP/SGP4

EPOCH          = 2026-01-30T03:05:54.278016
MEAN_MOTION    = 15.15647210
ECCENTRICITY   = .0053551
INCLINATION    = 98.2342
RA_OF_ASC_NODE = 173.8799
ARG_OF_PERICENTER = 13.6619
MEAN_ANOMALY   = 346.6046

EPHEMERIS_TYPE = 0
CLASSIFICATION_TYPE = U
NORAD_CAT_ID   = 28932
ELEMENT_SET_NO = 999
REV_AT_EPOCH   = 8859
BSTAR          = .5892E-3
MEAN_MOTION_DOT = .11547E-3
MEAN_MOTION_DDOT = 0

CCSDS_OMM_VERS = 2.0
CREATION_DATE  = 
ORIGINATOR     = 

OBJECT_NAME    = RESURS-DK 1
OBJECT_ID      = 2006-021A
CENTER_NAME    = EARTH
REF_FRAME      = TEME
TIME_SYSTEM    = UTC
MEAN_ELEMENT_THEORY = SGP/SGP4

EPOCH          = 2026-01-30T02:44:43.116288
MEAN_MOTION    = 15.12501158
ECCENTRICITY   = .0005144
INCLINATION    = 69.9348
RA_OF_ASC_NODE = 336.7878
ARG_OF_PERICENTER = 212.8770
MEAN_ANOMALY   = 147.2077

EPHEMERIS_TYPE = 0
CLASSIFICATION_TYPE = U
NORAD_CAT_ID   = 29228
ELEMENT_SET_NO = 999
REV_AT_EPOCH   = 8169
BSTAR          = .25702E-3
MEAN_MOTION_DOT = .4381E-4
MEAN_MOTION_DDOT = 0

CCSDS_OMM_VERS = 2.0
CREATION_DATE  = 
ORIGINATOR     = 

OBJECT_NAME    = CZ-4B R/B
OBJECT_ID      = 2006-046C
CENTER_NAME    = EARTH
REF_FRAME      = TEME
TIME_SYSTEM    = UTC
MEAN_ELEMENT_THEORY = SGP/SGP4

EPOCH          = 2026-01-30T01:55:05.602944
MEAN_MOTION    = 15.16472838
ECCENTRICITY   = .0034605
INCLINATION    = 97.5671
RA_OF_ASC_NODE = 75.0896
ARG_OF_PERICENTER = 43.4319
MEAN_ANOMALY   = 316.9630

EPHEMERIS_TYPE = 0
CLASSIFICATION_TYPE = U
NORAD_CAT_ID   = 29507
ELEMENT_SET_NO = 999
REV_AT_EPOCH   = 5419
BSTAR          = .39478E-3
MEAN_MOTION_DOT = .7735E-4
MEAN_MOTION_DDOT = 0

CCSDS_OMM_VERS = 2.0
CREATION_DATE  = 
ORIGINATOR     = 

OBJECT_NAME    = CZ-2C R/B
OBJECT_ID      = 2007-010B
CENTER_NAME    = EARTH
REF_FRAME      = TEME
TIME_SYSTEM    = UTC
MEAN_ELEMENT_THEORY = SGP/SGP4

EPOCH          = 2026-01-30T01:10:03.411840
MEAN_MOTION    = 14.20232285
ECCENTRICITY   = .0059754
INCLINATION    = 98.3970
RA_OF_ASC_NODE = 145.2688
ARG_OF_PERICENTER = 47.3725
MEAN_ANOMALY   = 313.2469

EPHEMERIS_TYPE = 0
CLASSIFICATION_TYPE = U
NORAD_CAT_ID   = 31114
ELEMENT_SET_NO = 999
REV_AT_EPOCH   = 97423
BSTAR          = .95705E-4
MEAN_MOTION_DOT = .167E-5
MEAN_MOTION_DDOT = 0

CCSDS_OMM_VERS = 2.0
CREATION_DATE  = 
ORIGINATOR     = 

OBJECT_NAME    = COSMO-SKYMED 1
OBJECT_ID      = 2007-023A
CENTER_NAME    = EARTH
REF_FRAME      = TEME
TIME_SYSTEM    = UTC
MEAN_ELEMENT_THEORY = SGP/SGP4

EPOCH          = 2026-01-30T03:32:40.779744
MEAN_MOTION    = 14.96222252
ECCENTRICITY   = .0001531
INCLINATION    = 97.8859
RA_OF_ASC_NODE = 220.8811
ARG_OF_PERICENTER = 83.6269
MEAN_ANOMALY   = 276.5126

EPHEMERIS_TYPE = 0
CLASSIFICATION_TYPE = U
NORAD_CAT_ID   = 31598
ELEMENT_SET_NO = 999
REV_AT_EPOCH   = 914
BSTAR          = .55166E-3
MEAN_MOTION_DOT = .6166E-4
MEAN_MOTION_DDOT = 0

CCSDS_OMM_VERS = 2.0
CREATION_DATE  = 
ORIGINATOR     = 

OBJECT_NAME    = COSMOS 2428
OBJECT_ID      = 2007-029A
CENTER_NAME    = EARTH
REF_FRAME      = TEME
TIME_SYSTEM    = UTC
MEAN_ELEMENT_THEORY = SGP/SGP4

EPOCH          = 2026-01-30T02:13:37.754112
MEAN_MOTION    = 14.12924843
ECCENTRICITY   = .0006646
INCLINATION    = 70.9401
RA_OF_ASC_NODE = 284.3652
ARG_OF_PERICENTER = 320.2624
MEAN_ANOMALY   = 39.8010

EPHEMERIS_TYPE = 0
CLASSIFICATION_TYPE = U
NORAD_CAT_ID   = 31792
ELEMENT_SET_NO = 999
REV_AT_EPOCH   = 95864
BSTAR          = .25345E-3
MEAN_MOTION_DOT = .424E-5
MEAN_MOTION_DDOT = 0

CCSDS_OMM_VERS = 2.0
CREATION_DATE  = 
ORIGINATOR     = 

OBJECT_NAME    = SL-16 R/B
OBJECT_ID      = 2007-029B
CENTER_NAME    = EARTH
REF_FRAME      = TEME
TIME_SYSTEM    = UTC
MEAN_ELEMENT_THEORY = SGP/SGP4

EPOCH          = 2026-01-30T01:10:53.415840
MEAN_MOTION    = 14.14823314
ECCENTRICITY   = .0001838
INCLINATION    = 70.9730
RA_OF_ASC_NODE = 253.6096
ARG_OF_PERICENTER = 271.7815
MEAN_ANOMALY   = 238.2178

EPHEMERIS_TYPE = 0
CLASSIFICATION_TYPE = U
NORAD_CAT_ID   = 31793
ELEMENT_SET_NO = 999
REV_AT_EPOCH   = 95990
BSTAR          = .12688E-3
MEAN_MOTION_DOT = .197E-5
MEAN_MOTION_DDOT = 0

CCSDS_OMM_VERS = 2.0
CREATION_DATE  = 
ORIGINATOR     = 

OBJECT_NAME    = KORONAS-FOTON
OBJECT_ID      = 2009-003A
CENTER_NAME    = EARTH
REF_FRAME      = TEME
TIME_SYSTEM    = UTC
MEAN_ELEMENT_THEORY = SGP/SGP4

EPOCH          = 2026-01-29T20:22:20.637408
MEAN_MOTION    = 15.42320097
ECCENTRICITY   = .0009303
INCLINATION    = 82.4328
RA_OF_ASC_NODE = 316.2201
ARG_OF_PERICENTER = 304.6503
MEAN_ANOMALY   = 55.3866

EPHEMERIS_TYPE = 0
CLASSIFICATION_TYPE = U
NORAD_CAT_ID   = 33504
ELEMENT_SET_NO = 999
REV_AT_EPOCH   = 93975
BSTAR          = .31465E-3
MEAN_MOTION_DOT = .13613E-3
MEAN_MOTION_DDOT = 0

CCSDS_OMM_VERS = 2.0
CREATION_DATE  = 
ORIGINATOR     = 

OBJECT_NAME    = CZ-2C R/B
OBJECT_ID      = 2011-030B
CENTER_NAME    = EARTH
REF_FRAME      = TEME
TIME_SYSTEM    = UTC
MEAN_ELEMENT_THEORY = SGP/SGP4

EPOCH          = 2026-01-29T21:40:08.007744
MEAN_MOTION    = 14.81072705
ECCENTRICITY   = .0054022
INCLINATION    = 97.8473
RA_OF_ASC_NODE = 347.9658
ARG_OF_PERICENTER = 115.8395
MEAN_ANOMALY   = 310.1402

EPHEMERIS_TYPE = 0
CLASSIFICATION_TYPE = U
NORAD_CAT_ID   = 37731
ELEMENT_SET_NO = 999
REV_AT_EPOCH   = 78435
BSTAR          = .27892E-3
MEAN_MOTION_DOT = .2165E-4
MEAN_MOTION_DDOT = 0

CCSDS_OMM_VERS = 2.0
CREATION_DATE  = 
ORIGINATOR     = 

OBJECT_NAME    = H-2A R/B
OBJECT_ID      = 2012-025E
CENTER_NAME    = EARTH
REF_FRAME      = TEME
TIME_SYSTEM    = UTC
MEAN_ELEMENT_THEORY = SGP/SGP4

EPOCH          = 2026-01-30T04:14:25.285056
MEAN_MOTION    = 14.94824786
ECCENTRICITY   = .0046473
INCLINATION    = 98.4658
RA_OF_ASC_NODE = 354.1716
ARG_OF_PERICENTER = 79.1340
MEAN_ANOMALY   = 281.5103

EPHEMERIS_TYPE = 0
CLASSIFICATION_TYPE = U
NORAD_CAT_ID   = 38341
ELEMENT_SET_NO = 999
REV_AT_EPOCH   = 74246
BSTAR          = .52163E-3
MEAN_MOTION_DOT = .5734E-4
MEAN_MOTION_DDOT = 0

CCSDS_OMM_VERS = 2.0
CREATION_DATE  = 
ORIGINATOR     = 

OBJECT_NAME    = SHIJIAN-16 (SJ-16)
OBJECT_ID      = 2013-057A
CENTER_NAME    = EARTH
REF_FRAME      = TEME
TIME_SYSTEM    = UTC
MEAN_ELEMENT_THEORY = SGP/SGP4

EPOCH          = 2026-01-30T05:07:43.931424
MEAN_MOTION    = 14.92215382
ECCENTRICITY   = .0017474
INCLINATION    = 74.9722
RA_OF_ASC_NODE = 257.9231
ARG_OF_PERICENTER = 207.4458
MEAN_ANOMALY   = 152.5809

EPHEMERIS_TYPE = 0
CLASSIFICATION_TYPE = U
NORAD_CAT_ID   = 39358
ELEMENT_SET_NO = 999
REV_AT_EPOCH   = 66576
BSTAR          = .14821E-3
MEAN_MOTION_DOT = .1486E-4
MEAN_MOTION_DDOT = 0

